{"fetched_at":"2026-07-15T17:46:44.919Z","source":"https://celestrak.org/NORAD/elements/gp.php?GROUP=kuiper&FORMAT=JSON","constellation":"kuiper","records":[{"OBJECT_NAME":"KUIPER-00080","OBJECT_ID":"2025-151M","EPOCH":"2026-07-15T03:43:24.699072","CLASSIFICATION_TYPE":"U","MEAN_MOTION":14.79910007,"ECCENTRICITY":0.0000815,"INCLINATION":51.8999,"RA_OF_ASC_NODE":96.9128,"ARG_OF_PERICENTER":102.4332,"MEAN_ANOMALY":257.6721,"EPHEMERIS_TYPE":0,"NORAD_CAT_ID":64827,"ELEMENT_SET_NO":999,"REV_AT_EPOCH":5418,"BSTAR":-0.0004076,"MEAN_MOTION_DOT":-0.00003325,"MEAN_MOTION_DDOT":0},{"OBJECT_NAME":"KUIPER-00082","OBJECT_ID":"2025-151N","EPOCH":"2026-07-15T03:14:10.144896","CLASSIFICATION_TYPE":"U","MEAN_MOTION":14.79936463,"ECCENTRICITY":0.0000862,"INCLINATION":51.9018,"RA_OF_ASC_NODE":84.5551,"ARG_OF_PERICENTER":106.4188,"MEAN_ANOMALY":253.6869,"EPHEMERIS_TYPE":0,"NORAD_CAT_ID":64828,"ELEMENT_SET_NO":999,"REV_AT_EPOCH":5435,"BSTAR":0.00012285,"MEAN_MOTION_DOT":0.00000715,"MEAN_MOTION_DDOT":0},{"OBJECT_NAME":"KUIPER-00083","OBJECT_ID":"2025-151P","EPOCH":"2026-07-14T22:10:47.394624","CLASSIFICATION_TYPE":"U","MEAN_MOTION":14.79927833,"ECCENTRICITY":0.0000744,"INCLINATION":51.901,"RA_OF_ASC_NODE":92.9709,"ARG_OF_PERICENTER":106.3892,"MEAN_ANOMALY":253.7153,"EPHEMERIS_TYPE":0,"NORAD_CAT_ID":64829,"ELEMENT_SET_NO":999,"REV_AT_EPOCH":5540,"BSTAR":0.00025504,"MEAN_MOTION_DOT":0.00001723,"MEAN_MOTION_DDOT":0},{"OBJECT_NAME":"KUIPER-00084","OBJECT_ID":"2025-151Q","EPOCH":"2026-07-15T02:46:53.792832","CLASSIFICATION_TYPE":"U","MEAN_MOTION":14.79970624,"ECCENTRICITY":0.0001116,"INCLINATION":51.9017,"RA_OF_ASC_NODE":102.1059,"ARG_OF_PERICENTER":92.8104,"MEAN_ANOMALY":267.2986,"EPHEMERIS_TYPE":0,"NORAD_CAT_ID":64830,"ELEMENT_SET_NO":999,"REV_AT_EPOCH":5410,"BSTAR":0.000096803,"MEAN_MOTION_DOT":0.00000517,"MEAN_MOTION_DDOT":0},{"OBJECT_NAME":"KUIPER-00085","OBJECT_ID":"2025-151R","EPOCH":"2026-07-14T21:33:49.618080","CLASSIFICATION_TYPE":"U","MEAN_MOTION":14.79935621,"ECCENTRICITY":0.0000917,"INCLINATION":51.9037,"RA_OF_ASC_NODE":85.646,"ARG_OF_PERICENTER":107.4264,"MEAN_ANOMALY":252.6799,"EPHEMERIS_TYPE":0,"NORAD_CAT_ID":64831,"ELEMENT_SET_NO":999,"REV_AT_EPOCH":5431,"BSTAR":0.00005682,"MEAN_MOTION_DOT":0.00000212,"MEAN_MOTION_DDOT":0},{"OBJECT_NAME":"KUIPER-00086","OBJECT_ID":"2025-151S","EPOCH":"2026-07-15T03:47:15.556416","CLASSIFICATION_TYPE":"U","MEAN_MOTION":14.79932819,"ECCENTRICITY":0.0000829,"INCLINATION":51.9013,"RA_OF_ASC_NODE":94.4471,"ARG_OF_PERICENTER":101.8705,"MEAN_ANOMALY":258.2351,"EPHEMERIS_TYPE":0,"NORAD_CAT_ID":64832,"ELEMENT_SET_NO":999,"REV_AT_EPOCH":5421,"BSTAR":0.00026358,"MEAN_MOTION_DOT":0.00001789,"MEAN_MOTION_DDOT":0},{"OBJECT_NAME":"KUIPER-00087","OBJECT_ID":"2025-151T","EPOCH":"2026-07-15T00:59:56.560704","CLASSIFICATION_TYPE":"U","MEAN_MOTION":14.79933805,"ECCENTRICITY":0.0000727,"INCLINATION":51.9,"RA_OF_ASC_NODE":77.4228,"ARG_OF_PERICENTER":124.1544,"MEAN_ANOMALY":235.9488,"EPHEMERIS_TYPE":0,"NORAD_CAT_ID":64833,"ELEMENT_SET_NO":999,"REV_AT_EPOCH":5443,"BSTAR":0.00025986,"MEAN_MOTION_DOT":0.0000176,"MEAN_MOTION_DDOT":0},{"OBJECT_NAME":"KUIPER-00089","OBJECT_ID":"2025-151U","EPOCH":"2026-07-14T21:37:42.089376","CLASSIFICATION_TYPE":"U","MEAN_MOTION":14.7992991,"ECCENTRICITY":0.0000714,"INCLINATION":51.901,"RA_OF_ASC_NODE":83.0654,"ARG_OF_PERICENTER":104.7781,"MEAN_ANOMALY":255.326,"EPHEMERIS_TYPE":0,"NORAD_CAT_ID":64834,"ELEMENT_SET_NO":999,"REV_AT_EPOCH":5435,"BSTAR":0.00024436,"MEAN_MOTION_DOT":0.00001642,"MEAN_MOTION_DDOT":0},{"OBJECT_NAME":"KUIPER-00090","OBJECT_ID":"2025-151V","EPOCH":"2026-07-15T01:03:49.383648","CLASSIFICATION_TYPE":"U","MEAN_MOTION":14.7994154,"ECCENTRICITY":0.0000769,"INCLINATION":51.8991,"RA_OF_ASC_NODE":74.9387,"ARG_OF_PERICENTER":113.7235,"MEAN_ANOMALY":246.3808,"EPHEMERIS_TYPE":0,"NORAD_CAT_ID":64835,"ELEMENT_SET_NO":999,"REV_AT_EPOCH":5447,"BSTAR":0.00027146,"MEAN_MOTION_DOT":0.00001849,"MEAN_MOTION_DDOT":0},{"OBJECT_NAME":"KUIPER-00091","OBJECT_ID":"2025-151W","EPOCH":"2026-07-15T02:33:18.918144","CLASSIFICATION_TYPE":"U","MEAN_MOTION":14.79934799,"ECCENTRICITY":0.0001057,"INCLINATION":51.9009,"RA_OF_ASC_NODE":79.6756,"ARG_OF_PERICENTER":97.7559,"MEAN_ANOMALY":262.3524,"EPHEMERIS_TYPE":0,"NORAD_CAT_ID":64836,"ELEMENT_SET_NO":999,"REV_AT_EPOCH":5441,"BSTAR":0.000053081,"MEAN_MOTION_DOT":0.00000183,"MEAN_MOTION_DDOT":0},{"OBJECT_NAME":"KUIPER-00092","OBJECT_ID":"2025-151X","EPOCH":"2026-07-15T02:21:38.990016","CLASSIFICATION_TYPE":"U","MEAN_MOTION":14.79936831,"ECCENTRICITY":0.0000842,"INCLINATION":51.902,"RA_OF_ASC_NODE":87.2029,"ARG_OF_PERICENTER":106.2094,"MEAN_ANOMALY":253.8961,"EPHEMERIS_TYPE":0,"NORAD_CAT_ID":64837,"ELEMENT_SET_NO":999,"REV_AT_EPOCH":5552,"BSTAR":0.00013545,"MEAN_MOTION_DOT":0.00000812,"MEAN_MOTION_DDOT":0},{"OBJECT_NAME":"KUIPER-00093","OBJECT_ID":"2025-151Y","EPOCH":"2026-07-15T02:17:46.744224","CLASSIFICATION_TYPE":"U","MEAN_MOTION":14.79930156,"ECCENTRICITY":0.0000854,"INCLINATION":51.9004,"RA_OF_ASC_NODE":89.6879,"ARG_OF_PERICENTER":102.7218,"MEAN_ANOMALY":257.384,"EPHEMERIS_TYPE":0,"NORAD_CAT_ID":64838,"ELEMENT_SET_NO":999,"REV_AT_EPOCH":5427,"BSTAR":0.000070559,"MEAN_MOTION_DOT":0.00000317,"MEAN_MOTION_DDOT":0},{"OBJECT_NAME":"KUIPER-00094","OBJECT_ID":"2025-151Z","EPOCH":"2026-07-15T00:13:18.139872","CLASSIFICATION_TYPE":"U","MEAN_MOTION":14.79915815,"ECCENTRICITY":0.0001056,"INCLINATION":51.9046,"RA_OF_ASC_NODE":45.1611,"ARG_OF_PERICENTER":105.9738,"MEAN_ANOMALY":254.134,"EPHEMERIS_TYPE":0,"NORAD_CAT_ID":64839,"ELEMENT_SET_NO":999,"REV_AT_EPOCH":5489,"BSTAR":0.0002583,"MEAN_MOTION_DOT":0.00001748,"MEAN_MOTION_DDOT":0},{"OBJECT_NAME":"KUIPER-00081","OBJECT_ID":"2025-171A","EPOCH":"2026-07-14T14:39:10.499616","CLASSIFICATION_TYPE":"U","MEAN_MOTION":14.7993661,"ECCENTRICITY":0.00004641,"INCLINATION":51.9017,"RA_OF_ASC_NODE":306.8308,"ARG_OF_PERICENTER":109.0429,"MEAN_ANOMALY":251.0584,"EPHEMERIS_TYPE":0,"NORAD_CAT_ID":65132,"ELEMENT_SET_NO":999,"REV_AT_EPOCH":5183,"BSTAR":0.0002469374,"MEAN_MOTION_DOT":0.00001662,"MEAN_MOTION_DDOT":0},{"OBJECT_NAME":"KUIPER-00088","OBJECT_ID":"2025-171B","EPOCH":"2026-07-14T15:49:14.779776","CLASSIFICATION_TYPE":"U","MEAN_MOTION":14.79933432,"ECCENTRICITY":0.00005752,"INCLINATION":51.9015,"RA_OF_ASC_NODE":324.1175,"ARG_OF_PERICENTER":119.5001,"MEAN_ANOMALY":240.6019,"EPHEMERIS_TYPE":0,"NORAD_CAT_ID":65133,"ELEMENT_SET_NO":999,"REV_AT_EPOCH":5159,"BSTAR":0.00026126758,"MEAN_MOTION_DOT":0.00001771,"MEAN_MOTION_DDOT":0},{"OBJECT_NAME":"KUIPER-00095","OBJECT_ID":"2025-171C","EPOCH":"2026-07-14T14:43:03.773568","CLASSIFICATION_TYPE":"U","MEAN_MOTION":14.79938248,"ECCENTRICITY":0.00003428,"INCLINATION":51.8989,"RA_OF_ASC_NODE":304.3684,"ARG_OF_PERICENTER":72.8551,"MEAN_ANOMALY":287.2449,"EPHEMERIS_TYPE":0,"NORAD_CAT_ID":65134,"ELEMENT_SET_NO":999,"REV_AT_EPOCH":5186,"BSTAR":0.00024469104,"MEAN_MOTION_DOT":0.00001645,"MEAN_MOTION_DDOT":0}]}
