KUIPER-00080            
1 64827U 25151M   26196.15514698 -.00003325  00000+0 -40760-3 0  9998
2 64827  51.8999  96.9128 0000815 102.4332 257.6721 14.79910007 54180
KUIPER-00082            
1 64828U 25151N   26196.13483964  .00000715  00000+0  12285-3 0  9997
2 64828  51.9018  84.5551 0000862 106.4188 253.6869 14.79936463 54354
KUIPER-00083            
1 64829U 25151P   26195.92415966  .00001723  00000+0  25504-3 0  9999
2 64829  51.9010  92.9709 0000744 106.3892 253.7153 14.79927833 55400
KUIPER-00084            
1 64830U 25151Q   26196.11590038  .00000517  00000+0  96803-4 0  9998
2 64830  51.9017 102.1059 0001116  92.8104 267.2986 14.79970624 54106
KUIPER-00085            
1 64831U 25151R   26195.89849095  .00000212  00000+0  56820-4 0  9990
2 64831  51.9037  85.6460 0000917 107.4264 252.6799 14.79935621 54319
KUIPER-00086            
1 64832U 25151S   26196.15781894  .00001789  00000+0  26358-3 0  9995
2 64832  51.9013  94.4471 0000829 101.8705 258.2351 14.79932819 54215
KUIPER-00087            
1 64833U 25151T   26196.04162686  .00001760  00000+0  25986-3 0  9991
2 64833  51.9000  77.4228 0000727 124.1544 235.9488 14.79933805 54432
KUIPER-00089            
1 64834U 25151U   26195.90118159  .00001642  00000+0  24436-3 0  9990
2 64834  51.9010  83.0654 0000714 104.7781 255.3260 14.79929910 54350
KUIPER-00090            
1 64835U 25151V   26196.04432157  .00001849  00000+0  27146-3 0  9994
2 64835  51.8991  74.9387 0000769 113.7235 246.3808 14.79941540 54478
KUIPER-00091            
1 64836U 25151W   26196.10646896  .00000183  00000+0  53081-4 0  9997
2 64836  51.9009  79.6756 0001057  97.7559 262.3524 14.79934799 54418
KUIPER-00092            
1 64837U 25151X   26196.09836794  .00000812  00000+0  13545-3 0  9993
2 64837  51.9020  87.2029 0000842 106.2094 253.8961 14.79936831 55523
KUIPER-00093            
1 64838U 25151Y   26196.09567991  .00000317  00000+0  70559-4 0  9993
2 64838  51.9004  89.6879 0000854 102.7218 257.3840 14.79930156 54277
KUIPER-00094            
1 64839U 25151Z   26196.00923773  .00001748  00000+0  25830-3 0  9999
2 64839  51.9046  45.1611 0001056 105.9738 254.1340 14.79915815 54895
KUIPER-00081            
1 65132U 25171A   26195.61053819  .00001662  00000+0  24694-3 0  9991
2 65132  51.9017 306.8308 0000464 109.0429 251.0584 14.79936610 51837
KUIPER-00088            
1 65133U 25171B   26195.65919884  .00001771  00000+0  26127-3 0  9993
2 65133  51.9015 324.1175 0000575 119.5001 240.6019 14.79933432 51595
KUIPER-00095            
1 65134U 25171C   26195.61323812  .00001645  00000+0  24469-3 0  9997
2 65134  51.8989 304.3684 0000342  72.8551 287.2449 14.79938248 51867
